[
    {
        "Altitude(m)": 611967.1431019272,
        "Argument of Periapsis(deg)": 0.0,
        "Eccentricity": 0.0,
        "Inclination(deg)": 60.0,
        "Latitude(deg)": 59.140052965702495,
        "Longitude(deg)": -73.90796046634648,
        "Mean Anomaly(deg)": -261.8182,
        "RAAN(deg)": 280.0,
        "Satellite Name": "Test1 1238",
        "Satellite Number": 1238,
        "Semi-Major Axis(m)": 6980739.136638005,
        "Time(s)": 0
    },
    {
        "Altitude(m)": 611934.3429396944,
        "Argument of Periapsis(deg)": 0.00010418945913296404,
        "Eccentricity": 0.0,
        "Inclination(deg)": 60.0,
        "Latitude(deg)": 58.98641538130096,
        "Longitude(deg)": -72.78471815123753,
        "Mean Anomaly(deg)": -261.1980938545382,
        "RAAN(deg)": 279.99957995086027,
        "Satellite Name": "Test1 1238",
        "Satellite Number": 1238,
        "Semi-Major Axis(m)": 6980739.136638005,
        "Time(s)": 10
    }
]